STARLINK-1279
1 45360U 20019A   26092.91668981  .00090748  00000+0  10027-2 0  9996
2 45360  53.0411 340.7475 0003224 200.1461 131.2686 15.62314120  5938
